STARLINK-31025          
1 58634U 23203S   26068.02679154 -.00001194  00000+0 -33876-4 0  9999
2 58634  42.9998  70.4447 0000593 277.9710  82.1075 15.27576528124698
COSMOS 2588             
1 64095U 25109A   26068.81179522  .00009169  00000+0  32611-3 0  9998
2 64095  72.9704  73.5401 0005019 308.6780  51.3966 15.29122656 44425
